IRIDIUM 126             
1 42809U 17039G   25187.93401602 -.00000004  00000+0 -84711-5 0  9992
2 42809  86.3999 137.9784 0002371  81.8931 278.2533 14.34217593420466
IRIDIUM 124             
1 42810U 17039H   25188.61678749  .00000271  00000+0  74530-4 0  9999
2 42810  86.4471  74.4261 0001987  82.6324 277.5103 14.43279401425417
IRIDIUM 128             
1 42811U 17039J   25188.48290099  .00000046  00000+0  94708-5 0  9993
2 42811  86.3999 169.2216 0001958  83.1146 277.0273 14.34217969420577
IRIDIUM 121             
1 42812U 17039K   25188.37165441  .00000003  00000+0 -59596-5 0  9994
2 42812  86.3999 137.8210 0002058  86.2279 273.9152 14.34217544420408
IRIDIUM 133             
1 42955U 17061A   25188.37507688  .00000067  00000+0  17037-4 0  9992
2 42955  86.4002 169.3757 0002301  85.3908 274.7550 14.34218355405357
IRIDIUM 100             
1 42956U 17061B   25188.01988702  .00000202  00000+0  65236-4 0  9999
2 42956  86.3999 169.4508 0002293  82.4130 277.7326 14.34220248405305
IRIDIUM 122             
1 42957U 17061C   25188.47655869  .00000166  00000+0  52114-4 0  9995
2 42957  86.3999 169.2592 0002351  85.7794 274.3671 14.34217706405372
IRIDIUM 129             
1 42958U 17061D   25188.50193022  .00000130  00000+0  39520-4 0  9995
2 42958  86.4001 169.3119 0002660  92.5960 267.5541 14.34218316405398
